HST                     
1 20580U 90037B   24008.37633580  .00005115  00000+0  25348-3 0  9999
2 20580  28.4707 340.5904 0002613  87.1317  44.1103 15.15454384652599
